{
    "links": {
        "self": "http://www.neowsapp.com/rest/v1/neo/3063080?api_key=iIulBulltgU6a56xZRHN4H3l9WmuAYTsLGpBGhQ2"
    },
    "id": "3063080",
    "neo_reference_id": "3063080",
    "name": "(2000 WG63)",
    "designation": "2000 WG63",
    "nasa_jpl_url": "http://ssd.jpl.nasa.gov/sbdb.cgi?sstr=3063080",
    "absolute_magnitude_h": 23.2,
    "estimated_diameter": {
        "kilometers": {
            "estimated_diameter_min": 0.0608912622,
            "estimated_diameter_max": 0.1361570015
        },
        "meters": {
            "estimated_diameter_min": 60.8912622106,
            "estimated_diameter_max": 136.1570015386
        },
        "miles": {
            "estimated_diameter_min": 0.0378360645,
            "estimated_diameter_max": 0.0846040122
        },
        "feet": {
            "estimated_diameter_min": 199.7744887109,
            "estimated_diameter_max": 446.7093369279
        }
    },
    "is_potentially_hazardous_asteroid": false,
    "close_approach_data": [
        {
            "close_approach_date": "1914-01-15",
            "close_approach_date_full": "1914-Jan-15 05:24",
            "epoch_date_close_approach": -1765996560000,
            "relative_velocity": {
                "kilometers_per_second": "17.6811025772",
                "kilometers_per_hour": "63651.9692780194",
                "miles_per_hour": "39550.8583550004"
            },
            "miss_distance": {
                "astronomical": "0.3881202854",
                "lunar": "150.9787910206",
                "kilometers": "58061967.999632098",
                "miles": "36078033.9543070324"
            },
            "orbiting_body": "Earth"
        },
        {
            "close_approach_date": "2000-12-02",
            "close_approach_date_full": "2000-Dec-02 12:20",
            "epoch_date_close_approach": 975759600000,
            "relative_velocity": {
                "kilometers_per_second": "7.9849828683",
                "kilometers_per_hour": "28745.9383257649",
                "miles_per_hour": "17861.6081780288"
            },
            "miss_distance": {
                "astronomical": "0.0316342383",
                "lunar": "12.3057186987",
                "kilometers": "4732414.668752421",
                "miles": "2940586.1183725698"
            },
            "orbiting_body": "Earth"
        }
    ],
    "orbital_data": {
        "orbit_id": "11",
        "orbit_determination_date": "2017-04-06 09:16:41",
        "first_observation_date": "2000-11-26",
        "last_observation_date": "2000-12-12",
        "data_arc_in_days": 16,
        "observations_used": 49,
        "orbit_uncertainty": "7",
        "minimum_orbit_intersection": ".0173733",
        "jupiter_tisserand_invariant": "3.777",
        "epoch_osculation": "2459000.5",
        "eccentricity": ".4750050492476058",
        "semi_major_axis": "1.909467562886338",
        "inclination": "9.199165002761973",
        "ascending_node_longitude": "243.374633414836",
        "orbital_period": "963.7554670111268",
        "perihelion_distance": "1.002460829140807",
        "perihelion_argument": "185.7324929250546",
        "aphelion_distance": "2.816474296631868",
        "perihelion_time": "2458631.560281169028",
        "mean_anomaly": "137.8132766302808",
        "mean_motion": ".3735387370786699",
        "equinox": "J2000",
        "orbit_class": {
            "orbit_class_type": "APO",
            "orbit_class_description": "Near-Earth asteroid orbits which cross the Earth’s orbit similar to that of 1862 Apollo",
            "orbit_class_range": "a (semi-major axis) > 1.0 AU; q (perihelion) < 1.017 AU"
        }
    },
    "is_sentry_object": false
}